BEIDOU 3 (C01)          
1 36287U 10001A   21061.04742101 -.00000289  00000-0  00000-0 0  9997
2 36287   1.7158  41.0024 0002756 100.4597 175.9636  1.00266974 40777
BEIDOU 5 (C06)          
1 36828U 10036A   21061.51536509 -.00000130  00000-0  00000+0 0  9995
2 36828  54.1760 180.5879 0107708 234.2668  47.9730  1.00294822 38834
BEIDOU 6 (C04)          
1 37210U 10057A   21061.78533644 -.00000120  00000-0  00000-0 0  9990
2 37210   0.9546  54.0582 0004123 197.7454 351.7299  1.00271218 37907
BEIDOU 7 (C07)          
1 37256U 10068A   21061.54979813 -.00000192  00000-0  00000-0 0  9997
2 37256  51.0445 295.2767 0081936 216.2525 325.5282  1.00290396 37414
BEIDOU 8 (C08)          
1 37384U 11013A   21062.24063676 -.00000171  00000-0  00000+0 0  9995
2 37384  59.6316  58.9691 0054644 207.4555 100.8868  1.00283832 36294
BEIDOU 9 (C09)          
1 37763U 11038A   21061.58297154 -.00000087  00000-0  00000+0 0  9995
2 37763  54.4645 183.0140 0078434 224.1225  57.6404  1.00287183 35269
BEIDOU 10 (C10)         
1 37948U 11073A   21061.80848748 -.00000136  00000-0  00000-0 0  9991
2 37948  51.1449 294.8818 0069362 215.1052  37.9461  1.00277483 34020
BEIDOU 11 (C05)         
1 38091U 12008A   21061.79910458  .00000050  00000-0  00000-0 0  9990
2 38091   1.3270  64.3998 0008349 297.6068 145.1410  1.00269592 33104
BEIDOU 12 (C11)         
1 38250U 12018A   21061.51744435 -.00000076  00000-0  00000+0 0  9996
2 38250  56.7575   9.1434 0023399 252.2328 345.9467  1.86234383 60299
BEIDOU 13 (C12)         
1 38251U 12018B   21061.28928788 -.00000075  00000-0  00000-0 0  9996
2 38251  56.6794   8.5048 0014464 257.9108 231.7393  1.86234275 60297
BEIDOU 15 (C14)         
1 38775U 12050B   21061.50314604  .00000016  00000-0  00000+0 0  9997
2 38775  55.1597 127.5879 0014236 316.8862 153.5141  1.86232344 57671
BEIDOU 16 (C02)         
1 38953U 12059A   21062.03382810 -.00000184  00000-0  00000+0 0  9994
2 38953   1.7131  84.9204 0009906 269.1339 263.2198  1.00272644 30670
BEIDOU 17 (C31)         
1 40549U 15019A   21061.80646201 -.00000167  00000-0  00000-0 0  9990
2 40549  52.6647 318.2270 0036423 188.2809  39.8137  1.00289704 21703
BEIDOU 18 (C57)         
1 40748U 15037A   21061.49833979 -.00000078  00000-0  00000+0 0  9996
2 40748  55.9452   7.6489 0005318 343.6289 196.2020  1.86233478 38127
BEIDOU 19 (C58)         
1 40749U 15037B   21061.38302490 -.00000077  00000-0  00000+0 0  9993
2 40749  55.9476   7.6411 0007242 313.8103 285.2752  1.86232338 38115
BEIDOU 20 (C18)         
1 40938U 15053A   21061.57271594 -.00000102  00000-0  00000+0 0  9991
2 40938  52.2283 281.2840 0046144 189.9818 350.4816  1.00260851 19983
BEIDOU IGSO-6 (C13)     
1 41434U 16021A   21061.29626336 -.00000129  00000-0  00000-0 0  9996
2 41434  57.4072  57.7663 0040672 216.2899  87.8366  1.00291171 18091
BEIDOU-2 G7 (C03)       
1 41586U 16037A   21061.87757611 -.00000362  00000-0  00000+0 0  9994
2 41586   1.4773  63.9935 0009319   8.1925 155.1156  1.00273957 17400
BEIDOU-3 M1 (C19)       
1 43001U 17069A   21061.11572042  .00000020  00000-0  00000+0 0  9994
2 43001  55.3139 127.5405 0010183 285.1706  81.7878  1.86231717 22607
BEIDOU-3 M2 (C20)       
1 43002U 17069B   21061.56077583  .00000015  00000-0  00000+0 0  9998
2 43002  55.3129 127.5623 0008527 305.6970  43.2553  1.86231529 22591
BEIDOU-3 M3 (C27)       
1 43107U 18003A   21061.44517525 -.00000078  00000-0  00000+0 0  9995
2 43107  55.3856   8.7816 0004655  26.2336  51.0873  1.86232584 21366
BEIDOU-3 M4 (C28)       
1 43108U 18003B   21061.37251907 -.00000078  00000-0  00000+0 0  9997
2 43108  55.3796   8.7735 0003799 266.0709 167.7232  1.86232622 21363
BEIDOU-3 M5 (C21)       
1 43207U 18018A   21061.17296597  .00000019  00000-0  00000-0 0  9990
2 43207  55.2734 127.6695 0005859 325.6630  34.3732  1.86231602 20746
BEIDOU-3 M6 (C22)       
1 43208U 18018B   21061.23967226  .00000019  00000-0  00000+0 0  9991
2 43208  55.2733 127.6715 0008287 295.0870  64.9058  1.86231790 20741
BEIDOU-3 M7 (C29)       
1 43245U 18029A   21061.26016574 -.00000078  00000-0  00000-0 0  9995
2 43245  55.3210   6.5831 0001699 314.8435 268.5795  1.86232676 19892
BEIDOU-3 M8 (C30)       
1 43246U 18029B   21061.62042740 -.00000080  00000-0  10000-3 0  9997
2 43246  55.3186   6.6025 0005383 338.7715 172.2953  1.86232986 19892
BEIDOU IGSO-7 (C16)     
1 43539U 18057A   21061.74980192 -.00000135  00000-0  00000+0 0  9994
2 43539  55.0561 179.9120 0032389 213.4222 147.9586  1.00245936  9782
BEIDOU-3 M9 (C23)       
1 43581U 18062A   21061.36176446  .00000056  00000-0  00000+0 0  9995
2 43581  54.4481 248.2728 0002174 318.3543 229.1165  1.86231885 17638
BEIDOU-3 M10 (C24)      
1 43582U 18062B   21061.16981073  .00000056  00000-0  00000+0 0  9994
2 43582  54.4453 248.2679 0006449  16.6341 133.4074  1.86232229 17635
BEIDOU-3 M11 (C25)      
1 43602U 18067A   21061.42064284  .00000057  00000-0  00000+0 0  9998
2 43602  54.5226 246.8334 0007412   6.6555 353.9340  1.86231630 17131
BEIDOU-3 M12 (C26)      
1 43603U 18067B   21061.51075428  .00000058  00000-0  00000+0 0  9992
2 43603  54.5153 246.7990 0004540   2.1565 329.3317  1.86231555 17147
BEIDOU-3 M13 (C32)      
1 43622U 18072A   21061.52337656  .00000016  00000-0  00000+0 0  9998
2 43622  55.2374 127.2292 0006797 279.4415  90.7873  1.86231579 16666
BEIDOU-3 M14 (C33)      
1 43623U 18072B   21061.47939557  .00000016  00000-0  00000+0 0  9991
2 43623  55.2375 127.2220 0004969 303.1448 127.8311  1.86231565 16663
BEIDOU-3 M15 (C34)      
1 43647U 18078A   21061.38332586 -.00000079  00000-0  10000-3 0  9997
2 43647  55.2148   6.7790 0007733 346.6760 275.0981  1.86232775 16169
BEIDOU-3 M16 (C35)      
1 43648U 18078B   21060.43718186 -.00000076  00000-0  10000-3 0  9994
2 43648  55.2113   6.8193 0005564 352.5653 263.5078  1.86232367 16163
BEIDOU-3 G1 (C59)       
1 43683U 18085A   21061.63782045 -.00000288  00000-0  00000-0 0  9990
2 43683   1.2378 239.4704 0003002  42.1974 248.6111  1.00269432  8680
BEIDOU-3 M17 (C36)      
1 43706U 18093A   21060.71869941  .00000055  00000-0  00000+0 0  9994
2 43706  54.5270 248.1458 0007510 279.2572  62.0219  1.86231886 15519
BEIDOU-3 M18 (C37)      
1 43707U 18093B   21061.41894549  .00000057  00000-0  00000+0 0  9997
2 43707  54.5282 248.1098 0007071 310.7661 230.7528  1.86232133 15530
BEIDOU-3 IGSO-1 (C38)   
1 44204U 19023A   21061.68073752 -.00000191  00000-0  00000-0 0  9999
2 44204  55.8683  58.0741 0016804 205.6379 256.2926  1.00271687  6984
BEIDOU-2 G8             
1 44231U 19027A   21061.78228319 -.00000255  00000-0  00000+0 0  9995
2 44231   0.4244 316.6177 0006436 264.2794   6.0619  1.00271795  6701
BEIDOU-3 IGSO-2 (C39)   
1 44337U 19035A   21061.74424477 -.00000129  00000-0  00000-0 0  9991
2 44337  55.0871 175.9573 0017287 187.9314 171.7837  1.00263826  6316
BEIDOU-3 M23 (C45)      
1 44542U 19061A   21060.41453819  .00000055  00000-0  10000-3 0  9994
2 44542  54.7530 248.2040 0008166 344.7564 196.7658  1.86231422  9773
BEIDOU-3 M24 (C46)      
1 44543U 19061B   21061.09675995  .00000056  00000-0  10000-3 0  9992
2 44543  54.7500 248.1521 0005495 344.5267 205.0959  1.86231778  9798
BEIDOU-3 IGSO-3         
1 44709U 19073A   21061.59007794 -.00000144  00000-0  00000-0 0  9995
2 44709  58.0046 301.2562 0018780 191.4099 346.3692  1.00258041  5071
BEIDOU-3 M21            
1 44793U 19078A   21061.19736141 -.00000078  00000-0  10000-3 0  9994
2 44793  55.0604   6.8625 0007353 351.7553  99.9243  1.86232381  8652
BEIDOU-3 M22            
1 44794U 19078B   21061.47664174 -.00000079  00000-0  10000-3 0  9993
2 44794  55.0384   6.8559 0005490 344.0506 205.6458  1.86232898  8654
BEIDOU-3 M19            
1 44864U 19090A   21061.52394140  .00000015  00000-0  00000+0 0  9998
2 44864  55.1727 127.4642 0016549 263.5999 152.4162  1.86231821  8246
BEIDOU-3 M20            
1 44865U 19090B   21061.49193939  .00000016  00000-0  00000+0 0  9999
2 44865  55.1745 127.4962 0015055 277.8938 206.5920  1.86231787  8226
BEIDOU-3 G2             
1 45344U 20017A   21061.86021534 -.00000148  00000-0  00000+0 0  9992
2 45344   2.5721 333.5519 0002052  45.1548 171.8029  1.00270702  3891
BEIDOU-3 G3             
1 45807U 20040A   21061.84727396 -.00000363  00000-0  00000-0 0  9999
2 45807   2.5302 298.3923 0009243  14.5392 263.4459  1.00273757  2700
